[{"OBJECT_NAME":"STARLINK-2388","OBJECT_ID":"2021-018W","EPOCH":"2026-03-09T16:57:08.803296","MEAN_MOTION":15.30196777,"ECCENTRICITY":0.0001071,"INCLINATION":53.1597,"RA_OF_ASC_NODE":216.6328,"ARG_OF_PERICENTER":96.2177,"MEAN_ANOMALY":263.8945,"EPHEMERIS_TYPE":0,"CLASSIFICATION_TYPE":"U","NORAD_CAT_ID":47807,"ELEMENT_SET_NO":999,"REV_AT_EPOCH":27708,"BSTAR":3.8947405e-5,"MEAN_MOTION_DOT":7.94e-6,"MEAN_MOTION_DDOT":0},{"OBJECT_NAME":"ION SCV-008","OBJECT_ID":"2023-001AU","EPOCH":"2026-03-09T19:46:58.662912","MEAN_MOTION":15.2722664,"ECCENTRICITY":0.00151921,"INCLINATION":97.5676,"RA_OF_ASC_NODE":163.606,"ARG_OF_PERICENTER":8.542,"MEAN_ANOMALY":351.6074,"EPHEMERIS_TYPE":0,"CLASSIFICATION_TYPE":"U","NORAD_CAT_ID":55051,"ELEMENT_SET_NO":999,"REV_AT_EPOCH":17616,"BSTAR":0.00031422806,"MEAN_MOTION_DOT":8.336e-5,"MEAN_MOTION_DDOT":0}]
